ORBCOMM FM33 [-]        
1 25983U 99065D   23346.42479623  .00000902  00000+0  34819-3 0  9999
2 25983  45.0290 100.4667 0009629 170.2889 301.2185 14.37075101256556
ORBCOMM FM36 [-]        
1 25984U 99065E   23345.66303340  .00000648  00000+0  27499-3 0  9990
2 25984  45.0387 186.9754 0003713  45.2290 314.8859 14.34939141254832
ORBCOMM FM35 [+]        
1 25985U 99065F   23345.66637149  .00000528  00000+0  23465-3 0  9994
2 25985  45.0386 189.1843 0003170 142.6279 217.4789 14.34608079255230
ORBCOMM FM34 [-]        
1 25986U 99065G   23345.70208930  .00000528  00000+0  23493-3 0  9993
2 25986  45.0383 189.5093 0003950  88.7287 271.4013 14.34562638255357
ORBCOMM FM38 [-]        
1 33060U 08031A   23346.31566421  .00001286  00000+0  21175-3 0  9995
2 33060  48.4423  59.6732 0005603 200.2232 159.8461 14.76560583832918
ORBCOMM FM41 [-]        
1 33061U 08031B   23345.47205859  .00001358  00000+0  22318-3 0  9997
2 33061  48.4464  69.9397 0004581 183.6933 268.0976 14.76310964832304
ORBCOMM FM29 [-]        
1 33062U 08031C   23346.40396740  .00001359  00000+0  22396-3 0  9999
2 33062  48.4407  73.5376 0006645 183.4066 294.1113 14.76201133832746
ORBCOMM FM39 [-]        
1 33063U 08031D   23345.43966234  .00001243  00000+0  21151-3 0  9993
2 33063  48.4408  97.5465 0007203 154.0018 206.1258 14.75318299831928
